{
  "type": "FeatureCollection",
  "features": [
    {
      "type": "Feature",
      "properties": {
        "norad_id": 54741,
        "name": "GALAXY 35 (G-35)",
        "group": "intelsat",
        "lat": 0.01474413042054366,
        "lon": 56.11180455225394,
        "alt_km": 35793.32261470606,
        "timestamp": "2025-12-21T03:56:50.522385+00:00",
        "meta_object_name": "GALAXY 35 (G-35)",
        "meta_object_id": "2022-170A",
        "meta_epoch": "2025-12-20T14:29:53.824416",
        "meta_mean_motion": 1.00272181,
        "meta_eccentricity": 0.0002149,
        "meta_inclination": 0.0141,
        "meta_ra_of_asc_node": 52.9808,
        "meta_arg_of_pericenter": 219.5945,
        "meta_mean_anomaly": 301.2412,
        "meta_ephemeris_type": 0,
        "meta_classification_type": "U",
        "meta_norad_cat_id": 54741,
        "meta_element_set_no": 999,
        "meta_rev_at_epoch": 1110,
        "meta_bstar": 0,
        "meta_mean_motion_dot": -1.39e-06,
        "meta_mean_motion_ddot": 0,
        "tle_line1": "1 54741U 22170A   25354.60409519 -.00000139  00000+0  00000+0 0  9998",
        "tle_line2": "2 54741   0.0141  52.9808 0002149 219.5945 301.2412  1.00272181 11100"
      },
      "geometry": {
        "type": "Point",
        "coordinates": [
          56.11180455225394,
          0.01474413042054366
        ]
      }
    },
    {
      "type": "Feature",
      "properties": {
        "norad_id": 54742,
        "name": "GALAXY 36 (G-36)",
        "group": "intelsat",
        "lat": 0.03043323305606542,
        "lon": 60.185130260736976,
        "alt_km": 35786.16954679857,
        "timestamp": "2025-12-21T03:56:50.522396+00:00",
        "meta_object_name": "GALAXY 36 (G-36)",
        "meta_object_id": "2022-170B",
        "meta_epoch": "2025-12-20T14:31:08.702976",
        "meta_mean_motion": 1.00269422,
        "meta_eccentricity": 4.02e-05,
        "meta_inclination": 0.0148,
        "meta_ra_of_asc_node": 20.4593,
        "meta_arg_of_pericenter": 330.7869,
        "meta_mean_anomaly": 226.9725,
        "meta_ephemeris_type": 0,
        "meta_classification_type": "U",
        "meta_norad_cat_id": 54742,
        "meta_element_set_no": 999,
        "meta_rev_at_epoch": 1098,
        "meta_bstar": 0,
        "meta_mean_motion_dot": 0,
        "meta_mean_motion_ddot": 0,
        "tle_line1": "1 54742U 22170B   25354.60496184  .00000000  00000+0  00000+0 0  9999",
        "tle_line2": "2 54742   0.0148  20.4593 0000402 330.7869 226.9725  1.00269422 10989"
      },
      "geometry": {
        "type": "Point",
        "coordinates": [
          60.185130260736976,
          0.03043323305606542
        ]
      }
    },
    {
      "type": "Feature",
      "properties": {
        "norad_id": 57493,
        "name": "GALAXY 37 (G-37)",
        "group": "intelsat",
        "lat": 0.01468826907800236,
        "lon": 22.204613592628075,
        "alt_km": 35789.10085510229,
        "timestamp": "2025-12-21T03:56:50.522406+00:00",
        "meta_object_name": "GALAXY 37 (G-37)",
        "meta_object_id": "2023-112A",
        "meta_epoch": "2025-12-20T16:02:59.905824",
        "meta_mean_motion": 1.00270939,
        "meta_eccentricity": 0.0001926,
        "meta_inclination": 0.0145,
        "meta_ra_of_asc_node": 3.2733,
        "meta_arg_of_pericenter": 268.7416,
        "meta_mean_anomaly": 291.2295,
        "meta_ephemeris_type": 0,
        "meta_classification_type": "U",
        "meta_norad_cat_id": 57493,
        "meta_element_set_no": 999,
        "meta_rev_at_epoch": 875,
        "meta_bstar": 0,
        "meta_mean_motion_dot": 7.2e-07,
        "meta_mean_motion_ddot": 0,
        "tle_line1": "1 57493U 23112A   25354.66874891  .00000072  00000+0  00000+0 0  9992",
        "tle_line2": "2 57493   0.0145   3.2733 0001926 268.7416 291.2295  1.00270939  8751"
      },
      "geometry": {
        "type": "Point",
        "coordinates": [
          22.204613592628075,
          0.01468826907800236
        ]
      }
    }
  ]
}